NORAD_CAT_ID,OBJECT_NAME,OBJECT_TYPE,EPOCH,MEAN_MOTION,ECCENTRICITY,INCLINATION,RA_OF_ASC_NODE,ARG_OF_PERICENTER,MEAN_ANOMALY,BSTAR,MEAN_MOTION_DOT,MEAN_MOTION_DDOT,TLE_LINE0,TLE_LINE1,TLE_LINE2,SEMIMAJOR_AXIS,PERIOD,APOGEE,PERIGEE,DECAYED
54096.0,STARLINK-5188,PAYLOAD,2024-01-16 20:12:39,15.08835977,0.0001493,53.2155,248.2539,96.9004,263.2158,0.00047085,7.213e-05,0.0,0 STARLINK-5188,1 54096U 22136AX  24016.84212000  .00007213  00000-0  47085-3 0  9998,2 54096  53.2155 248.2539 0001493  96.9004 263.2158 15.08835977 69279,6917.893,95.438,540.791,538.725,0.0
54096.0,STARLINK-5188,PAYLOAD,2024-01-16 21:48:02,15.08838349,0.0001491,53.2156,247.9566,91.1207,268.9956,0.00041432,6.312e-05,0.0,0 STARLINK-5188,1 54096U 22136AX  24016.90835888  .00006312  00000-0  41432-3 0  9999,2 54096  53.2156 247.9566 0001491  91.1207 268.9956 15.08838349 68819,6917.885,95.438,540.782,538.719,0.0
54096.0,STARLINK-5188,PAYLOAD,2024-01-17 21:38:49,15.08839596,0.0001354,53.2144,243.4943,101.0964,259.0181,8.7807e-05,1.11e-05,0.0,0 STARLINK-5188,1 54096U 22136AX  24017.90195807  .00001110  00000-0  87807-4 0  9998,2 54096  53.2144 243.4943 0001354 101.0964 259.0181 15.08839596 68967,6917.882,95.438,540.683,538.81,0.0
54096.0,STARLINK-5188,PAYLOAD,2024-01-18 00:49:35,15.08840753,0.0001359,53.2146,242.8987,104.7208,255.3935,7.6768e-05,9.34e-06,0.0,0 STARLINK-5188,1 54096U 22136AX  24018.03443695  .00000934  00000-0  76768-4 0  9991,2 54096  53.2146 242.8987 0001359 104.7208 255.3935 15.08840753 69454,6917.878,95.438,540.683,538.803,0.0
54096.0,STARLINK-5188,PAYLOAD,2024-01-18 19:54:13,15.08842146,0.0001371,53.2147,239.3297,108.7485,251.3656,3.5157e-05,2.72e-06,0.0,0 STARLINK-5188,1 54096U 22136AX  24018.82931748  .00000272  00000-0  35157-4 0  9991,2 54096  53.2147 239.3297 0001371 108.7485 251.3656 15.08842146 69101,6917.874,95.437,540.687,538.79,0.0
54096.0,STARLINK-5188,PAYLOAD,2024-01-19 00:40:21,15.088509,0.0001352,53.2147,238.4375,105.5749,254.5392,-0.0002083,-3.602e-05,0.0,0 STARLINK-5188,1 54096U 22136AX  24019.02803233 -.00003602  00000-0 -20830-3 0  9994,2 54096  53.2147 238.4375 0001352 105.5749 254.5392 15.08850900 69137,6917.847,95.437,540.647,538.777,0.0
54096.0,STARLINK-5188,PAYLOAD,2024-01-19 19:45:00,15.08842411,0.0001285,53.215,234.8693,98.273,261.8407,0.00010884,1.445e-05,0.0,0 STARLINK-5188,1 54096U 22136AX  24019.82291746  .00001445  00000-0  10884-3 0  9991,2 54096  53.2150 234.8693 0001285  98.2730 261.8407 15.08842411 69728,6917.873,95.437,540.627,538.849,0.0
54096.0,STARLINK-5188,PAYLOAD,2024-01-20 13:14:14,15.08835632,0.0001387,53.2146,231.5981,106.6143,253.5001,-1.4281e-06,-3.11e-06,0.0,0 STARLINK-5188,1 54096U 22136AX  24020.55156114 -.00000311  00000-0 -14281-5 0  9992,2 54096  53.2146 231.5981 0001387 106.6143 253.5001 15.08835632 69367,6917.894,95.438,540.718,538.799,0.0
54096.0,STARLINK-5188,PAYLOAD,2024-01-20 19:35:47,15.08836548,0.0001363,53.2153,230.4088,107.9219,252.1921,4.9011e-05,4.92e-06,0.0,0 STARLINK-5188,1 54096U 22136AX  24020.81652427  .00000492  00000-0  49011-4 0  9995,2 54096  53.2153 230.4088 0001363 107.9219 252.1921 15.08836548 69872,6917.891,95.438,540.699,538.813,0.0
54096.0,STARLINK-5188,PAYLOAD,2024-01-20 22:46:34,15.0883648,0.0001242,53.2151,229.8143,93.25,266.8635,3.5294e-05,2.74e-06,0.0,0 STARLINK-5188,1 54096U 22136AX  24020.94900502  .00000274  00000-0  35294-4 0  9995,2 54096  53.2151 229.8143 0001242  93.2500 266.8635 15.08836480 69420,6917.891,95.438,540.615,538.897,0.0
54096.0,STARLINK-5188,PAYLOAD,2024-01-21 00:21:57,15.08835228,0.0001318,53.2158,229.5177,97.6378,262.4763,1.8859e-05,1.2e-07,0.0,0 STARLINK-5188,1 54096U 22136AX  24021.01524621  .00000012  00000-0  18859-4 0  9996,2 54096  53.2158 229.5177 0001318  97.6378 262.4763 15.08835228 69430,6917.895,95.438,540.672,538.848,0.0
54096.0,STARLINK-5188,PAYLOAD,2024-01-21 22:37:20,15.08845099,0.0001277,53.2154,225.3553,91.0267,269.0872,0.00012714,1.736e-05,0.0,0 STARLINK-5188,1 54096U 22136AX  24021.94259754  .00001736  00000-0  12714-3 0  9997,2 54096  53.2154 225.3553 0001277  91.0267 269.0872 15.08845099 69573,6917.865,95.437,540.613,538.846,0.0
54096.0,STARLINK-5188,PAYLOAD,2024-01-22 00:12:43,15.08845608,0.0001278,53.2154,225.0579,91.0458,269.0681,0.00013113,1.8e-05,0.0,0 STARLINK-5188,1 54096U 22136AX  24022.00883710  .00001800  00000-0  13113-3 0  9996,2 54096  53.2154 225.0579 0001278  91.0458 269.0681 15.08845608 70050,6917.863,95.437,540.612,538.844,0.0
54096.0,STARLINK-5188,PAYLOAD,2024-01-22 19:17:22,15.0883539,0.0001264,53.2152,221.4896,89.2907,270.823,8.1235e-05,1.005e-05,0.0,0 STARLINK-5188,1 54096U 22136AX  24022.80372720  .00001005  00000-0  81235-4 0  9996,2 54096  53.2152 221.4896 0001264  89.2907 270.8230 15.08835390 70173,6917.894,95.438,540.634,538.885,0.0
54096.0,STARLINK-5188,PAYLOAD,2024-01-22 20:52:45,15.08835891,0.0001287,53.2152,221.192,88.0012,272.1127,7.9687e-05,9.8e-06,0.0,0 STARLINK-5188,1 54096U 22136AX  24022.86996660  .00000980  00000-0  79687-4 0  9996,2 54096  53.2152 221.1920 0001287  88.0012 272.1127 15.08835891 69711,6917.893,95.438,540.648,538.868,0.0
54096.0,STARLINK-5188,PAYLOAD,2024-01-23 03:14:17,15.08841421,0.0001224,53.2148,220.0025,91.0619,269.0513,0.00010439,1.374e-05,0.0,0 STARLINK-5188,1 54096U 22136AX  24023.13492290  .00001374  00000-0  10439-3 0  9994,2 54096  53.2148 220.0025 0001224  91.0619 269.0513 15.08841421 70226,6917.876,95.437,540.588,538.894,0.0
54096.0,STARLINK-5188,PAYLOAD,2024-01-23 20:43:31,15.08850374,0.0001395,53.2143,216.731,81.6387,278.4763,0.00017056,2.428e-05,0.0,0 STARLINK-5188,1 54096U 22136AX  24023.86355867  .00002428  00000-0  17056-3 0  9995,2 54096  53.2143 216.7310 0001395  81.6387 278.4763 15.08850374 69862,6917.849,95.437,540.679,538.749,0.0
54096.0,STARLINK-5188,PAYLOAD,2024-01-24 11:02:00,15.08842026,0.0001403,53.214,214.0546,86.6835,273.4317,0.00015154,2.125e-05,0.0,0 STARLINK-5188,1 54096U 22136AX  24024.45972342  .00002125  00000-0  15154-3 0  9995,2 54096  53.2140 214.0546 0001403  86.6835 273.4317 15.08842026 70423,6917.874,95.437,540.71,538.769,0.0
54096.0,STARLINK-5188,PAYLOAD,2024-01-24 12:37:23,15.0884218,0.0001424,53.2136,213.7576,79.8051,280.3102,0.00017254,2.459e-05,0.0,0 STARLINK-5188,1 54096U 22136AX  24024.52596369  .00002459  00000-0  17254-3 0  9997,2 54096  53.2136 213.7576 0001424  79.8051 280.3102 15.08842180 69961,6917.874,95.437,540.724,538.754,0.0
54096.0,STARLINK-5188,PAYLOAD,2024-01-24 20:34:18,15.08845452,0.0001353,53.2138,212.2709,82.0992,278.0154,0.00017723,2.534e-05,0.0,0 STARLINK-5188,1 54096U 22136AX  24024.85716103  .00002534  00000-0  17723-3 0  9998,2 54096  53.2138 212.2709 0001353  82.0992 278.0154 15.08845452 70010,6917.864,95.437,540.665,538.793,0.0
54096.0,STARLINK-5188,PAYLOAD,2024-01-24 22:09:41,15.08847194,0.0001391,53.2138,211.9734,83.4791,276.6359,0.00021747,3.175e-05,0.0,0 STARLINK-5188,1 54096U 22136AX  24024.92340069  .00003175  00000-0  21747-3 0  9993,2 54096  53.2138 211.9734 0001391  83.4791 276.6359 15.08847194 70025,6917.858,95.437,540.686,538.761,0.0
54096.0,STARLINK-5188,PAYLOAD,2024-01-25 17:14:19,15.08842358,0.0001398,53.2141,208.4047,85.1594,274.9558,0.00011306,1.512e-05,0.0,0 STARLINK-5188,1 54096U 22136AX  24025.71828312  .00001512  00000-0  11306-3 0  9996,2 54096  53.2141 208.4047 0001398  85.1594 274.9558 15.08842358 70618,6917.873,95.437,540.705,538.771,0.0
54096.0,STARLINK-5188,PAYLOAD,2024-01-26 18:40:29,15.08846907,0.0001346,53.2141,203.6466,83.4265,276.688,0.00023157,3.4e-05,0.0,0 STARLINK-5188,1 54096U 22136AX  24026.77812072  .00003400  00000-0  23157-3 0  9994,2 54096  53.2141 203.6466 0001346  83.4265 276.6880 15.08846907 70777,6917.859,95.437,540.655,538.793,0.0
54096.0,STARLINK-5188,PAYLOAD,2024-01-27 12:09:43,15.08852499,0.000134,53.2155,200.3734,84.96,275.1545,-0.00023706,-4.06e-05,0.0,0 STARLINK-5188,1 54096U 22136AX  24027.50675784 -.00004060  00000-0 -23706-3 0  9998,2 54096  53.2155 200.3734 0001340  84.9600 275.1545 15.08852499 70413,6917.842,95.437,540.634,538.78,0.0
54096.0,STARLINK-5188,PAYLOAD,2024-01-27 21:42:03,15.08838765,0.0001319,53.2149,198.59,86.7974,273.3169,3.3222e-05,2.41e-06,0.0,0 STARLINK-5188,1 54096U 22136AX  24027.90420309  .00000241  00000-0  33222-4 0  9993,2 54096  53.2149 198.5900 0001319  86.7974 273.3169 15.08838765 70477,6917.884,95.438,540.662,538.837,0.0
54096.0,STARLINK-5188,PAYLOAD,2024-01-28 12:00:31,15.08832241,0.0001464,53.2166,195.914,106.6872,253.428,0.00010012,1.305e-05,0.0,0 STARLINK-5188,1 54096U 22136AX  24028.50037005  .00001305  00000-0  10012-3 0  9990,2 54096  53.2166 195.9140 0001464 106.6872 253.4280 15.08832241 71032,6917.904,95.438,540.782,538.756,0.0
54096.0,STARLINK-5188,PAYLOAD,2024-01-28 18:22:05,15.0881162,0.0001532,53.2169,194.7243,96.3508,263.7659,0.00042919,6.544e-05,0.0,0 STARLINK-5188,1 54096U 22136AX  24028.76533577  .00006544  00000-0  42919-3 0  9994,2 54096  53.2169 194.7243 0001532  96.3508 263.7659 15.08811620 71079,6917.967,95.439,540.892,538.772,0.0
54096.0,STARLINK-5188,PAYLOAD,2024-01-29 10:15:55,15.08837499,0.0001343,53.2168,191.7508,86.4103,273.7043,9.2698e-05,1.188e-05,0.0,0 STARLINK-5188,1 54096U 22136AX  24029.42773011  .00001188  00000-0  92698-4 0  9996,2 54096  53.2168 191.7508 0001343  86.4103 273.7043 15.08837499 71171,6917.888,95.438,540.682,538.824,0.0
54096.0,STARLINK-5188,PAYLOAD,2024-01-30 14:52:52,15.08841389,0.0001267,53.2164,186.4004,80.1285,279.9851,0.00010389,1.366e-05,0.0,0 STARLINK-5188,1 54096U 22136AX  24030.62004943  .00001366  00000-0  10389-3 0  9995,2 54096  53.2164 186.4004 0001267  80.1285 279.9851 15.08841389 70881,6917.876,95.437,540.618,538.865,0.0
54096.0,STARLINK-5188,PAYLOAD,2024-01-30 18:03:38,15.08843,0.0001324,53.2167,185.8056,81.304,278.8102,0.00011678,1.571e-05,0.0,0 STARLINK-5188,1 54096U 22136AX  24030.75252827  .00001571  00000-0  11678-3 0  9995,2 54096  53.2167 185.8056 0001324  81.3040 278.8102 15.08843000 71374,6917.871,95.437,540.652,538.82,0.0
